NORAD_CAT_ID,OBJECT_NAME,OBJECT_TYPE,EPOCH,MEAN_MOTION,ECCENTRICITY,INCLINATION,RA_OF_ASC_NODE,ARG_OF_PERICENTER,MEAN_ANOMALY,BSTAR,MEAN_MOTION_DOT,MEAN_MOTION_DDOT,TLE_LINE0,TLE_LINE1,TLE_LINE2,SEMIMAJOR_AXIS,PERIOD,APOGEE,PERIGEE,DECAYED
55952.0,STARLINK-5893,PAYLOAD,2023-06-21 16:18:06,15.69919542,0.00035,69.9974,271.3977,270.9799,89.0996,3.9163e-06,2.58e-06,0.0,0 STARLINK-5893,1 55952U 23037AQ  23172.67924566  .00000258  00000-0  39163-5 0  9993,2 55952  69.9974 271.3977 0003500 270.9799  89.0996 15.69919542 15243,6737.264,91.724,361.487,356.771,0.0
55952.0,STARLINK-5893,PAYLOAD,2023-06-21 23:56:52,15.69912979,0.0003376,69.9971,270.5035,272.4584,87.6225,1.2312e-05,1.267e-05,0.0,0 STARLINK-5893,1 55952U 23037AQ  23172.99783393  .00001267  00000-0  12312-4 0  9996,2 55952  69.9971 270.5035 0003376 272.4584  87.6225 15.69912979 15635,6737.283,91.725,361.422,356.873,0.0
55952.0,STARLINK-5893,PAYLOAD,2023-06-22 09:07:22,15.69933276,0.0003417,69.9969,269.4288,273.1637,86.9168,8.6785e-06,8.31e-06,0.0,0 STARLINK-5893,1 55952U 23037AQ  23173.38012272  .00000831  00000-0  86785-5 0  9993,2 55952  69.9969 269.4288 0003417 273.1637  86.9168 15.69933276 15699,6737.225,91.724,361.392,356.788,0.0
55952.0,STARLINK-5893,PAYLOAD,2023-06-23 09:35:25,15.69920491,0.000366,69.9985,266.5613,269.4976,90.58,-7.9195e-06,-1.165e-05,0.0,0 STARLINK-5893,1 55952U 23037AQ  23174.39959535 -.00001165  00000-0 -79195-5 0  9997,2 55952  69.9985 266.5613 0003660 269.4976  90.5800 15.69920491 15858,6737.261,91.724,361.592,356.661,0.0
55952.0,STARLINK-5893,PAYLOAD,2023-06-23 15:42:25,15.69929704,0.0003819,69.9984,265.8455,270.7438,89.332,1.3482e-05,1.409e-05,0.0,0 STARLINK-5893,1 55952U 23037AQ  23174.65445786  .00001409  00000-0  13482-4 0  9999,2 55952  69.9984 265.8455 0003819 270.7438  89.3320 15.69929704 15890,6737.235,91.724,361.673,356.527,0.0
55952.0,STARLINK-5893,PAYLOAD,2023-06-24 08:31:41,15.69926979,0.00037,69.9987,263.8756,270.4415,89.6357,1.6406e-05,1.76e-05,0.0,0 STARLINK-5893,1 55952U 23037AQ  23175.35534418  .00001760  00000-0  16406-4 0  9997,2 55952  69.9987 263.8756 0003700 270.4415  89.6357 15.69926979 16004,6737.243,91.724,361.601,356.615,0.0
55952.0,STARLINK-5893,PAYLOAD,2023-06-24 16:10:27,15.69917832,0.0004037,69.9989,262.98,265.6527,94.4207,-1.4796e-05,-1.992e-05,0.0,0 STARLINK-5893,1 55952U 23037AQ  23175.67392876 -.00001992  00000-0 -14796-4 0  9991,2 55952  69.9989 262.9800 0004037 265.6527  94.4207 15.69917832 16051,6737.269,91.725,361.854,356.414,0.0
55952.0,STARLINK-5893,PAYLOAD,2023-06-25 15:06:44,15.69930013,0.0003416,69.999,260.2927,267.0927,92.9878,1.3452e-05,1.405e-05,0.0,0 STARLINK-5893,1 55952U 23037AQ  23176.62967661  .00001405  00000-0  13452-4 0  9992,2 55952  69.9990 260.2927 0003416 267.0927  92.9878 15.69930013 16204,6737.234,91.724,361.401,356.798,0.0
55952.0,STARLINK-5893,PAYLOAD,2023-06-25 22:45:30,15.69919012,0.0003443,69.9985,259.3973,270.0111,90.069,1.8021e-06,4e-08,0.0,0 STARLINK-5893,1 55952U 23037AQ  23176.94826628  .00000004  00000-0  18021-5 0  9996,2 55952  69.9985 259.3973 0003443 270.0111  90.0690 15.69919012 16259,6737.266,91.724,361.45,356.811,0.0
55952.0,STARLINK-5893,PAYLOAD,2023-06-26 15:34:47,15.69909624,0.0003188,69.9978,257.4275,271.809,88.2741,-1.1086e-05,-1.545e-05,0.0,0 STARLINK-5893,1 55952U 23037AQ  23177.64916146 -.00001545  00000-0 -11086-4 0  9995,2 55952  69.9978 257.4275 0003188 271.8090  88.2741 15.69909624 16362,6737.293,91.725,361.305,357.01,0.0
55952.0,STARLINK-5893,PAYLOAD,2023-06-27 11:27:33,15.69923011,0.0004334,69.9989,255.1011,288.6584,71.4141,1.3942e-05,1.464e-05,0.0,0 STARLINK-5893,1 55952U 23037AQ  23178.47746857  .00001464  00000-0  13942-4 0  9998,2 55952  69.9989 255.1011 0004334 288.6584  71.4141 15.69923011 16493,6737.254,91.724,362.039,356.199,0.0
55952.0,STARLINK-5893,PAYLOAD,2023-06-28 04:16:49,15.69930354,0.000273,69.9992,253.1306,267.8025,92.2858,1.7676e-05,1.914e-05,0.0,0 STARLINK-5893,1 55952U 23037AQ  23179.17834727  .00001914  00000-0  17676-4 0  9998,2 55952  69.9992 253.1306 0002730 267.8025  92.2858 15.69930354 16606,6737.233,91.724,360.938,357.259,0.0
55952.0,STARLINK-5893,PAYLOAD,2023-06-28 07:20:20,15.6991916,0.0002899,69.9984,252.7706,270.9865,89.0998,1.3445e-06,-5.1e-07,0.0,0 STARLINK-5893,1 55952U 23037AQ  23179.30579032 -.00000051  00000-0  13445-5 0  9991,2 55952  69.9984 252.7706 0002899 270.9865  89.0998 15.69919160 16622,6737.265,91.724,361.083,357.177,0.0
55952.0,STARLINK-5893,PAYLOAD,2023-06-29 07:48:22,15.69922161,0.0003525,69.9961,249.9018,280.9719,79.108,-5.8744e-07,-2.84e-06,0.0,0 STARLINK-5893,1 55952U 23037AQ  23180.32525653 -.00000284  00000-0 -58744-6 0  9996,2 55952  69.9961 249.9018 0003525 280.9719  79.1080 15.69922161 16781,6737.257,91.724,361.497,356.747,0.0
55952.0,STARLINK-5893,PAYLOAD,2023-06-29 16:58:51,15.69935655,0.0003151,69.9968,248.8293,267.9395,92.144,8.8154e-06,8.48e-06,0.0,0 STARLINK-5893,1 55952U 23037AQ  23180.70754529  .00000848  00000-0  88154-5 0  9995,2 55952  69.9968 248.8293 0003151 267.9395  92.1440 15.69935655 16845,6737.218,91.724,361.206,356.96,0.0
55952.0,STARLINK-5893,PAYLOAD,2023-06-30 22:02:09,15.69928655,0.0003696,69.996,245.4253,265.2226,94.8548,2.2597e-05,2.506e-05,0.0,0 STARLINK-5893,1 55952U 23037AQ  23181.91816833  .00002506  00000-0  22597-4 0  9997,2 55952  69.9960 245.4253 0003696 265.2226  94.8548 15.69928655 17036,6737.238,91.724,361.593,356.613,0.0
55952.0,STARLINK-5893,PAYLOAD,2023-07-01 16:23:12,15.69914945,0.0003174,69.9973,243.2756,273.4128,86.6704,-5.0125e-06,-8.15e-06,0.0,0 STARLINK-5893,1 55952U 23037AQ  23182.68278219 -.00000815  00000-0 -50125-5 0  9994,2 55952  69.9973 243.2756 0003174 273.4128  86.6704 15.69914945 17150,6737.277,91.725,361.281,357.004,0.0
55952.0,STARLINK-5893,PAYLOAD,2023-07-02 10:44:12,15.69923896,0.0003242,69.997,241.1253,269.9836,90.0988,3.5542e-05,4.063e-05,0.0,0 STARLINK-5893,1 55952U 23037AQ  23183.44737230  .00004063  00000-0  35542-4 0  9994,2 55952  69.9970 241.1253 0003242 269.9836  90.0988 15.69923896 17279,6737.252,91.724,361.301,356.933,0.0
55952.0,STARLINK-5893,PAYLOAD,2023-07-02 13:47:43,15.69915305,0.0003313,69.9959,240.766,272.251,87.8306,2.4193e-05,2.696e-05,0.0,0 STARLINK-5893,1 55952U 23037AQ  23183.57481383  .00002696  00000-0  24193-4 0  9993,2 55952  69.9959 240.7660 0003313 272.2510  87.8306 15.69915305 17294,6737.276,91.725,361.373,356.909,0.0
55952.0,STARLINK-5893,PAYLOAD,2023-07-03 11:12:14,15.69937983,0.0003328,69.9998,238.2602,272.6496,87.4319,7.9176e-06,7.4e-06,0.0,0 STARLINK-5893,1 55952U 23037AQ  23184.46683334  .00000740  00000-0  79176-5 0  9992,2 55952  69.9998 238.2602 0003328 272.6496  87.4319 15.69937983 17430,6737.211,91.723,361.319,356.834,0.0
55952.0,STARLINK-5893,PAYLOAD,2023-07-03 15:47:30,15.69928568,0.0003093,69.9994,237.7232,270.9727,89.1114,8.2427e-06,7.79e-06,0.0,0 STARLINK-5893,1 55952U 23037AQ  23184.65798852  .00000779  00000-0  82427-5 0  9990,2 55952  69.9994 237.7232 0003093 270.9727  89.1114 15.69928568 17460,6737.238,91.724,361.187,357.02,0.0
55952.0,STARLINK-5893,PAYLOAD,2023-07-04 11:40:17,15.69922151,0.0002587,70.0001,235.3935,282.3393,77.7513,6.893e-06,6.16e-06,0.0,0 STARLINK-5893,1 55952U 23037AQ  23185.48631184  .00000616  00000-0  68930-5 0  9999,2 55952  70.0001 235.3935 0002587 282.3393  77.7513 15.69922151 17591,6737.257,91.724,360.865,357.379,0.0
55952.0,STARLINK-5893,PAYLOAD,2023-07-05 15:11:49,15.69929724,0.0003055,70.0003,232.1695,272.6193,87.4653,1.8866e-05,2.057e-05,0.0,0 STARLINK-5893,1 55952U 23037AQ  23186.63320775  .00002057  00000-0  18866-4 0  9991,2 55952  70.0003 232.1695 0003055 272.6193  87.4653 15.69929724 17778,6737.235,91.724,361.158,357.042,0.0
55952.0,STARLINK-5893,PAYLOAD,2023-07-06 04:57:35,15.69925588,0.0002787,69.9993,230.5566,265.0046,95.0831,1.3374e-05,1.396e-05,0.0,0 STARLINK-5893,1 55952U 23037AQ  23187.20666102  .00001396  00000-0  13374-4 0  9996,2 55952  69.9993 230.5566 0002787 265.0046  95.0831 15.69925588 17863,6737.247,91.724,360.99,357.234,0.0
55952.0,STARLINK-5893,PAYLOAD,2023-07-07 05:25:37,15.69922263,0.0003244,69.9982,227.6891,265.4865,94.596,1.487e-05,1.575e-05,0.0,0 STARLINK-5893,1 55952U 23037AQ  23188.22612896  .00001575  00000-0  14870-4 0  9991,2 55952  69.9982 227.6891 0003244 265.4865  94.5960 15.69922263 18024,6737.256,91.724,361.307,356.936,0.0
55952.0,STARLINK-5893,PAYLOAD,2023-07-08 08:57:09,15.69923896,0.0003375,69.9986,224.4666,266.9234,93.1575,8.9023e-06,8.58e-06,0.0,0 STARLINK-5893,1 55952U 23037AQ  23189.37302883  .00000858  00000-0  89023-5 0  9996,2 55952  69.9986 224.4666 0003375 266.9234  93.1575 15.69923896 18204,6737.252,91.724,361.391,356.843,0.0
55952.0,STARLINK-5893,PAYLOAD,2023-07-09 03:18:11,15.69919518,0.0003256,69.9977,222.315,267.6755,92.4067,2.8102e-06,1.25e-06,0.0,0 STARLINK-5893,1 55952U 23037AQ  23190.13763506  .00000125  00000-0  28102-5 0  9993,2 55952  69.9977 222.3150 0003256 267.6755  92.4067 15.69919518 18320,6737.264,91.724,361.323,356.936,0.0
55952.0,STARLINK-5893,PAYLOAD,2023-07-09 12:28:41,15.69929163,0.0003375,69.998,221.2411,267.57,92.5109,6.6696e-06,5.89e-06,0.0,0 STARLINK-5893,1 55952U 23037AQ  23190.51992881  .00000589  00000-0  66696-5 0  9999,2 55952  69.9980 221.2411 0003375 267.5700  92.5109 15.69929163 18384,6737.237,91.724,361.375,356.828,0.0
55952.0,STARLINK-5893,PAYLOAD,2023-07-10 11:24:58,15.69924848,0.0003378,69.9976,218.5548,268.5868,91.4941,1.2109e-05,1.243e-05,0.0,0 STARLINK-5893,1 55952U 23037AQ  23191.47568143  .00001243  00000-0  12109-4 0  9992,2 55952  69.9976 218.5548 0003378 268.5868  91.4941 15.69924848 18532,6737.249,91.724,361.39,356.838,0.0
55952.0,STARLINK-5893,PAYLOAD,2023-07-11 13:24:46,15.69908583,0.0003146,69.9975,215.509,265.0186,95.0651,2.7762e-05,3.124e-05,0.0,0 STARLINK-5893,1 55952U 23037AQ  23192.55887487  .00003124  00000-0  27762-4 0  9998,2 55952  69.9975 215.5090 0003146 265.0186  95.0651 15.69908583 18703,6737.296,91.725,361.28,357.041,0.0
